#aV2008  3 29  0  0   .00000000      96 DD+AD WGS84 FIT  NGA
## 1472 518400.00000000   900.00000000 54554  .0000000000000
+   31     2  3  4  5  6  7  8  9 10 11 12 13 14 15 16 17 18
+         19 20 21 22 23 24 25 26 27 28 29 30 31 32  0  0  0
+          0  0  0  0  0  0  0  0  0  0  0  0  0  0  0  0  0
+          0  0  0  0  0  0  0  0  0  0  0  0  0  0  0  0  0
+          0  0  0  0  0  0  0  0  0  0  0  0  0  0  0  0  0
++         0  0  0  0  0  0  0  0  0  0  0  0  0  0  0  0  0
++         0  0  0  0  0  0  0  0  0  0  0  0  0  0  0  0  0
++         0  0  0  0  0  0  0  0  0  0  0  0  0  0  0  0  0
++         0  0  0  0  0  0  0  0  0  0  0  0  0  0  0  0  0
++         0  0  0  0  0  0  0  0  0  0  0  0  0  0  0  0  0
%c cc cc ccc ccc cccc cccc cccc cccc ccccc ccccc ccccc ccccc
%c cc cc ccc ccc cccc cccc cccc cccc ccccc ccccc ccccc ccccc
%f  0.0000000  0.000000000  0.00000000000  0.000000000000000
%f  0.0000000  0.000000000  0.00000000000  0.000000000000000
%i    0    0    0    0      0      0      0      0         0
%i    0    0    0    0      0      0      0      0         0
/*      NGA, ST. LOUIS,MO.                                  
/*   EPHEMERIS COMPUTED FROM  3 DAYS OF DATA                
/* CCCCCCCCCCCCCCCCCCCCCCCCCCCCCCCCCCCCCCCCCCCCCCCCCCCCCCCCC
/* CCCCCCCCCCCCCCCCCCCCCCCCCCCCCCCCCCCCCCCCCCCCCCCCCCCCCCCCC
*  2008  3 29  1 30   .00000000                                                 
P  2   1690.976228  17106.453608  20156.389841    185.991159                    
V  2 -23729.009818 -10564.650787  10525.606020       .031845                    
P  3   3147.899828 -19689.493720 -17631.546130    206.712996                    
V  3  18624.182892 -12209.725178  17556.486903       .054043                    
P  4 -11583.787280  11211.447115  21059.739398    -35.220382                    
V  4 -23746.374746 -12808.806544  -5853.202793      -.075350                    
P  5  15028.480306  12243.606401  17954.102589    735.225799                    
V  5   1615.070978  23358.474358 -16889.063452       .105003                    
P  6  20903.956792 -16352.157274  -1530.283957     81.280485                    
V  6   3858.810939   1692.213353  31032.715460       .136550                    
P  7 -24655.316331  -6469.970157  -7601.106685    -89.350378                    
V  7  -7422.248435  -6617.736240  29734.295333       .141938                    
P  8 -19081.364819   3307.998739 -18469.863993   -146.713154                    
V  8 -19586.522839 -12191.875094  17681.179825      -.015271                    
P  9  20708.328746  15229.253764  -7638.687020    117.343129                    
V  9  -8895.601248  -1746.304361 -29896.188374       .017932                    
P 10   1228.875406  26344.364925   -565.129275      -.221855                    
V 10  -2976.972667    657.890877  32042.349972      -.003712                    
P 11 -23719.988887 -11213.356060  -5265.206425     26.668007                    
V 11   7511.476185  -2528.803875 -28970.437147      -.001680                    
P 12  12217.394588  17317.255612  16156.964103   -358.569052                    
V 12   -634.103499  20368.037192 -21392.154967      -.003407                    
P 13 -23058.955133   4439.251778  12268.651381    247.804575                    
V 13  12764.413671  -9290.118752  27129.634591       .019424                    
P 14  21422.565013 -15379.917610   2807.218756   -283.106799                    
V 14   3957.243362   -139.180308 -32177.690178       .039447                    
P 15   5880.149976  14317.760116 -21559.774910    -90.583517                    
V 15 -22968.014252  15023.730296   3713.604729      -.044377                    
P 16   2061.382459 -26009.556638   4455.154491    130.225143                    
V 16   3005.609583   5476.635165  31299.528829      -.011008                    
P 17 -21298.695192  15559.364323   2309.664435     40.519396                    
V 17  -4048.000642   -929.176271 -31659.489887      -.005919                    
P 18  15379.466746   -919.088151 -21455.521117   -192.278051                    
V 18    794.156356  27697.567149   -960.106807       .034384                    
P 19  -5884.912244 -14130.756818 -21611.713266     25.662796                    
V 19  24252.815600 -13315.800561   2264.949483       .011550                    
P 20 -13425.809245 -15161.298362  17091.127054    117.648310                    
V 20    351.311675 -22036.166821 -19092.531346      -.007905                    
P 21  23776.589156   2778.425595 -11958.712568     68.422119                    
V 21  12247.191802   9489.123416  25579.873750      -.009359                    
P 22  11987.107131 -16412.782116 -16924.316498    210.056814                    
V 22   2381.826909  21813.697069 -19336.963097       .003028                    
P 23 -15822.871794  -6296.909093  20375.778879    344.072924                    
V 23  21278.305024 -14840.936919  11668.494160       .025312                    
P 24  23050.287737  12870.186531   -304.931140     81.922143                    
V 24  -1120.242751   3165.697761  31773.178799       .030396                    
P 25 -24918.944995  -8737.917889  -1283.094253    -33.128725                    
V 25   -885.319731  -3449.513157  31890.622025      -.333234                    
P 26   2103.704000  15372.480011 -21939.880650    218.759920                    
V 26 -23292.048899  13171.635113   7692.095057       .089946                    
P 27 -24373.502701  -3331.779700  -9531.008184    177.580749                    
V 27 -11027.119989  -7312.402831  28597.410368       .026823                    
P 28 -12363.714005  13976.196547 -18387.031290    -17.119872                    
V 28  -2464.523120 -24187.731020 -16724.291000      -.004969                    
P 29  21882.628259  -1276.963500  15098.557893    -46.436516                    
V 29 -14980.604045  11825.907101  22915.562961       .020674                    
P 30  15421.665600   5186.928050  20678.071036     69.681929                    
V 30   1798.226453  27001.506533  -7886.589030       .016385                    
P 31   9125.559386 -12332.037199  21898.239409    -14.420242                    
V 31  24326.397449  12343.540672  -3114.633639      -.014479                    
P 32   2851.510331 -26269.891588  -3121.142032    259.072702                    
V 32   2276.166624   4530.707784 -31511.910323       .073554                    
EOF
